[{"OBJECT_NAME":"HAWK-11C","OBJECT_ID":"2024-247E","EPOCH":"2026-03-09T12:17:35.407968","MEAN_MOTION":15.2884802,"ECCENTRICITY":0.00059001,"INCLINATION":45.0045,"RA_OF_ASC_NODE":114.8762,"ARG_OF_PERICENTER":329.704,"MEAN_ANOMALY":30.3502,"EPHEMERIS_TYPE":0,"CLASSIFICATION_TYPE":"U","NORAD_CAT_ID":62381,"ELEMENT_SET_NO":999,"REV_AT_EPOCH":6774,"BSTAR":0.00033290115,"MEAN_MOTION_DOT":9.223e-5,"MEAN_MOTION_DDOT":0},{"OBJECT_NAME":"STARLINK-34206","OBJECT_ID":"2025-236N","EPOCH":"2026-03-09T09:09:39.547008","MEAN_MOTION":15.30194554,"ECCENTRICITY":0.0001101,"INCLINATION":53.158,"RA_OF_ASC_NODE":105.5726,"ARG_OF_PERICENTER":76.4635,"MEAN_ANOMALY":283.6489,"EPHEMERIS_TYPE":0,"CLASSIFICATION_TYPE":"U","NORAD_CAT_ID":66098,"ELEMENT_SET_NO":999,"REV_AT_EPOCH":2288,"BSTAR":0.0009263481,"MEAN_MOTION_DOT":0.00027172,"MEAN_MOTION_DDOT":0}]
